STAR VIBE               
1 55009U 23001A   26071.23924228  .00016337  00000+0  41270-3 0  9999
2 55009  97.3287 135.4539 0007600 104.5734 255.6355 15.39858796177292
BRO-8                   
1 55011U 23001C   26071.29601936  .00032514  00000+0  72842-3 0  9990
2 55011  97.3339 135.4440 0007815 114.2838 245.9227 15.43343776177231
CONNECTA T1.2           
1 55012U 23001D   26071.11887518  .00018271  00000+0  39423-3 0  9996
2 55012  97.3378 140.4907 0008032  96.6658 263.5505 15.44574230177534
BIRKELAND               
1 55015U 23001G   26071.27931072  .00010413  00000+0  27815-3 0  9993
2 55015  97.3443 139.0878 0008637  96.2110 264.0119 15.38247778177445
ION SCV-008             
1 55051U 23001AU  26071.24849197  .00007618  00000+0  28708-3 0  9991
2 55051  97.5674 166.0654 0014965 359.8852   0.2380 15.27270470176539
ION SCV-007             
1 55060U 23001BD  26071.15126740  .00000636  00000+0  96363-4 0  9999
2 55060  97.9115 136.0499 0011027 291.8316  68.1721 14.77455726171926
HUYGENS                 
1 55093U 23001CN  26071.27938863  .00010920  00000+0  29131-3 0  9990
2 55093  97.3354 138.4397 0011323  77.2973 282.9537 15.38244815177467
SHARJAHSAT-1            
1 55104U 23001CZ  26071.29916439  .00021218  00000+0  44440-3 0  9992
2 55104  97.3282 138.9347 0007637  97.7495 262.4621 15.45424280177516
HORUS 1                 
1 55690U 23025A   26071.26878428  .00007640  00000+0  32185-3 0  9996
2 55690  97.3529 147.8700 0003179 119.9027 240.2527 15.23614232169296
HORUS 2                 
1 55844U 23032A   26071.23803616  .00008508  00000+0  36176-3 0  9997
2 55844  97.3596 148.5569 0001833 105.9136 254.2304 15.23270462166729
GLOBAL-19               
1 55982U 23041B   26071.30097373  .00019670  00000+0  51445-3 0  9991
2 55982  42.0029  47.1965 0000774 357.6245   2.4591 15.38330591167003
BRO-9                   
1 56185U 23054H   26071.31656144  .00050204  00000+0  47745-3 0  9995
2 56185  97.3049 344.2850 0004603  58.3717 301.7993 15.66696656163805
ION SCV-010             
1 56192U 23054Q   26071.22711277  .00006157  00000+0  24724-3 0  9992
2 56192  97.3904 321.9575 0013016 179.6303 180.4947 15.25244911161419
GHOST-1                 
1 56195U 23054T   26071.25317202  .00166761  00000+0  73667-3 0  9996
2 56195  97.3014 348.3939 0004300  65.7497 294.4222 15.84015864164059
TELEOS-2                
1 56310U 23057C   26070.57858104  .00000837  00000+0  12813-4 0  9991
2 56310   9.9873 194.8748 0001177 218.3182 141.6948 14.96399543158151
SNIPE 4                 
1 56744U 23072B   26071.29383390  .00022530  00000+0  59653-3 0  9995
2 56744  97.5358 274.4491 0005209 321.1688  38.9182 15.38368889155192
SNIPE 2                 
1 56745U 23072C   26071.26370877  .00028267  00000+0  66583-3 0  9992
2 56745  97.5363 276.8592 0004874 356.7475   3.3739 15.41891462155288
2023-072G               
1 56749U 23072G   26071.28702434  .00030761  00000+0  64946-3 0  9999
2 56749  97.5020 275.6159 0003893 346.9389  13.1757 15.45139478155479
OTTER PUP               
1 56933U 23084B   26070.94879345  .00173303  00000+0  78996-3 0  9995
2 56933  97.5759 227.0665 0003897 243.4829 116.6041 15.83331750153854
GEISAT PRECURSOR        
1 56934U 23084C   26071.34584877  .00009812  00000+0  30919-3 0  9990
2 56934  97.6054 209.3100 0005011 335.2489  24.8512 15.33104700152684
BLACKJACK ACES-3        
1 56950U 23084U   26071.11179161  .00008689  00000+0  40452-3 0  9993
2 56950  97.6030 205.6360 0002492 349.9808  10.1377 15.20168931152432
BLACKJACK ACES-2        
1 56955U 23084Z   26071.24918863  .00012034  00000+0  55353-3 0  9997
2 56955  97.6037 205.8625 0000350  28.2139 331.9115 15.20495189152460
BLACKJACK ACES-1        
1 56956U 23084AA  26071.30350061  .00011153  00000+0  51736-3 0  9997
2 56956  97.6019 205.7039 0000365 203.0310 157.0909 15.20223624102195
ION SCV-011             
1 56957U 23084AB  26071.23353023  .00007228  00000+0  26929-3 0  9995
2 56957  98.1359 249.6059 0007725  23.3148 336.8438 15.27786330151000
GHOST-3                 
1 56958U 23084AC  26071.28236161  .00023151  00000+0  50344-3 0  9995
2 56958  97.6061 214.9931 0006474 284.8138  75.2392 15.44312790153045
TOMORROW-R2             
1 56962U 23084AG  26070.98894023  .00091628  00000+0  68690-3 0  9990
2 56962  97.5894 224.4591 0005229 242.1292 117.9441 15.72337375153659
AFR-1                   
1 56964U 23084AJ  26071.31801289  .00006884  00000+0  25780-3 0  9995
2 56964  97.6099 205.8377 0009766 326.1247  33.9366 15.27577922152439
METEOR-M2 3             
1 57166U 23091A   26071.27678682  .00000003  00000+0  19939-4 0  9999
2 57166  98.6209 128.1864 0005105  93.2892 266.8871 14.24037940140721
UMKA 1 (RS40S)          
1 57172U 23091G   26071.27191086  .00007118  00000+0  33619-3 0  9998
2 57172  97.5175 130.3676 0014704  98.0549 262.2355 15.19641049149284
2023-091H               
1 57173U 23091H   26071.30079180  .00013329  00000+0  51285-3 0  9993
2 57173  97.5167 133.8128 0011789  96.7549 263.5031 15.26451448149512
2023-091J               
1 57174U 23091J   26071.27120024  .00004542  00000+0  25868-3 0  9999
2 57174  97.5190 125.7366 0014950 119.7948 240.4772 15.13225261148978
CUBEBEL 2 (EU11S)       
1 57175U 23091K   26071.26258678  .00013779  00000+0  52482-3 0  9990
2 57175  97.5169 133.7336 0011811  98.5426 261.7151 15.26778401149509
SITRO-AIS 5 (KATYS)     
1 57176U 23091L   26071.30108131  .00014047  00000+0  52865-3 0  9998
2 57176  97.5177 134.3937 0013355  87.1545 273.1222 15.27153067149540
ZORKIY-2M 1             
1 57177U 23091M   26071.32470014  .00008315  00000+0  39287-3 0  9997
2 57177  97.5216 130.6352 0015221  95.2035 265.0937 15.19568098149282
CUBESX-HSE 3 (RS42S)    
1 57178U 23091N   26071.31306561  .00015623  00000+0  56085-3 0  9997
2 57178  97.5204 135.8100 0012605  79.1104 281.1553 15.28694066149614
MONITOR-3 (RS58S)       
1 57180U 23091Q   26071.27040674  .00012196  00000+0  47835-3 0  9990
2 57180  97.5198 134.0994 0013601  83.8258 276.4529 15.25810508149506
MONITOR-4 (RS57S)       
1 57182U 23091S   26071.18981054  .00011557  00000+0  45236-3 0  9991
2 57182  97.5193 133.9833 0013580  84.5714 275.7072 15.25894007149493
MONITOR-2 (RS39S)       
1 57184U 23091U   26071.30999943  .00006579  00000+0  32668-3 0  9996
2 57184  97.5199 130.2287 0013001  90.7657 269.5067 15.17950028149253
SVYATOBOR 1 (RS60S)     
1 57187U 23091X   26071.25940740  .00010694  00000+0  43218-3 0  9990
2 57187  97.5204 134.6131 0011083  77.3063 282.9413 15.24873800149534
HORS 1                  
1 57188U 23091Y   26071.31623578  .00011641  00000+0  46914-3 0  9994
2 57188  97.5184 134.4466 0010624  77.5505 282.6921 15.24948491149545
VIZARD-METEO (RS38S)    
1 57189U 23091Z   26071.30926778  .00018720  00000+0  59093-3 0  9999
2 57189  97.5192 139.0408 0008642  64.5899 295.6237 15.32860986149838
NANOZOND 1 (RS49S)      
1 57190U 23091AA  26068.04609972  .00257461  00000+0  17344-2 0  9991
2 57190  97.5065 148.2398 0000999 320.8834  39.2358 15.74384803150173
SITRO-AIS 6 (CHIRKIN)   
1 57192U 23091AC  26071.27390476  .00007450  00000+0  30559-3 0  9993
2 57192  97.5181 133.9517 0014174  88.0355 272.2505 15.24451691149513
SITRO-AIS 8 (ANOKHIN)   
1 57193U 23091AD  26071.27929676  .00016244  00000+0  56982-3 0  9993
2 57193  97.5169 135.5972 0012449  84.7535 275.5125 15.29443576149623
SITRO-AIS 7 (FARTUSHNIY)
1 57194U 23091AE  26071.32451844  .00007419  00000+0  30663-3 0  9999
2 57194  97.5181 133.8725 0014049  88.7360 271.5487 15.24199608149517
AVION KALUGA 650        
1 57195U 23091AF  26071.31303990  .00007383  00000+0  35279-3 0  9995
2 57195  97.5212 131.3025 0012149  89.6779 270.5848 15.19255565149319
HORS 2                  
1 57196U 23091AG  26071.28020627  .00014524  00000+0  51168-3 0  9995
2 57196  97.5196 137.1262 0009703  72.0409 288.1887 15.29357523149705
A-SEANSAT-PG1           
1 57197U 23091AH  26071.28808226  .00020209  00000+0  62439-3 0  9995
2 57197  97.5184 139.0090 0008773  70.9044 289.3148 15.33527993149844
SITRO-AIS 10 (BURDAEV)  
1 57199U 23091AK  26071.29533769  .00021229  00000+0  62854-3 0  9999
2 57199  97.5180 139.7529 0008007  67.2480 292.9609 15.34875076149884
SITRO-AIS 9 (SHCHUKIN)  
1 57201U 23091AM  26071.29419589  .00020402  00000+0  61144-3 0  9999
2 57201  97.5180 139.5496 0008243  66.8782 293.3328 15.34497190149870
UTMN 2 (RS27S)          
1 57203U 23091AP  26071.31984127  .00015059  00000+0  52693-3 0  9990
2 57203  97.5194 137.3311 0009586  68.7978 291.4285 15.29573506149723
SITRO-AIS 12 (SMIRENNIY)
1 57204U 23091AQ  26071.23689154  .00021326  00000+0  63410-3 0  9997
2 57204  97.5192 139.9014 0007863  62.6201 297.5841 15.34740154149881
SITRO-AIS 11 (SHEFFER)  
1 57208U 23091AU  26071.27468853  .00022065  00000+0  64873-3 0  9991
2 57208  97.5190 140.1314 0007680  62.0457 298.1562 15.35089663149906
H2SAT (HEINRICH HERTZ)  
1 57213U 23093A   26071.03378228  .00000002  00000+0  00000+0 0  9994
2 57213   0.0322 290.0490 0001885 167.3246  85.1391  1.00270550  9941
KUZGTU 1 (RS47S)        
1 57217U 23091AV  26071.29081845  .00013461  00000+0  50072-3 0  9991
2 57217  97.5178 134.8999 0012845  81.8443 278.4252 15.27555133149575
QIANKUN-1               
1 57422U 23103B   26071.06957181  .00223254  24457-4  24952-3 0  9991
2 57422  96.1921 122.4502 0039360 166.3511 193.8849 16.07730402151694
FENGYUN 3F              
1 57490U 23111A   26071.29523454  .00000075  00000+0  55860-4 0  9992
2 57490  98.6918 143.0790 0001210  78.0935 282.0377 14.19920146135115
METEOR 2-1 DEB          
1 57492U 75064F   26069.78005252  .00005901  00000+0  23523-2 0  9992
2 57492  81.2784  97.7263 0005160  26.0456 334.0984 14.28462970388933
HJ-2F                   
1 57519U 23116A   26071.25379745  .00009342  00000+0  42573-3 0  9999
2 57519  97.3884  78.2520 0009819  33.9394 326.2468 15.20832122144017
